{"type": "FeatureCollection", "features": [ {"type": "Feature", "properties": {"norad_id": 38552, "name": "METEOSAT-10 (MSG-3)", "group": "weather", "lat": -0.4753589967431336, "lon": -112.14912665176996, "alt_km": 35783.114034427184, "timestamp": "2025-12-05T11:32:55.669301+00:00", "meta": {"OBJECT_NAME": "METEOSAT-10 (MSG-3)", "OBJECT_ID": "2012-035B", "EPOCH": "2025-12-04T01:44:31.731072", "MEAN_MOTION": 1.00272508, "ECCENTRICITY": 8.021e-05, "INCLINATION": 4.2071, "RA_OF_ASC_NODE": 61.7359, "ARG_OF_PERICENTER": 221.6691, "MEAN_ANOMALY": 175.985, "EPHEMERIS_TYPE": 0, "CLASSIFICATION_TYPE": "U", "NORAD_CAT_ID": 38552, "ELEMENT_SET_NO": 999, "REV_AT_EPOCH": 4890, "BSTAR": 0, "MEAN_MOTION_DOT": 8e-08, "MEAN_MOTION_DDOT": 0}, "tle": {"line1": "1 38552U 12035B   25338.07258948  .00000008  00000+0  00000+0 0  9994", "line2": "2 38552   4.2071  61.7359 0000802 221.6691 175.9850  1.00272508 48908"}}, "geometry": {"type": "Point", "coordinates": [-112.14912665176996, -0.4753589967431336]}}, {"type": "Feature", "properties": {"norad_id": 38771, "name": "METOP-B", "group": "weather", "lat": 45.58814869435233, "lon": 20.590783034050858, "alt_km": 817.3571498253732, "timestamp": "2025-12-05T11:32:55.669312+00:00", "meta": {"OBJECT_NAME": "METOP-B", "OBJECT_ID": "2012-049A", "EPOCH": "2025-12-04T16:44:53.128896", "MEAN_MOTION": 14.21403839, "ECCENTRICITY": 0.0002555, "INCLINATION": 98.6811, "RA_OF_ASC_NODE": 28.7926, "ARG_OF_PERICENTER": 162.161, "MEAN_ANOMALY": 197.9657, "EPHEMERIS_TYPE": 0, "CLASSIFICATION_TYPE": "U", "NORAD_CAT_ID": 38771, "ELEMENT_SET_NO": 999, "REV_AT_EPOCH": 68563, "BSTAR": 0.00015431, "MEAN_MOTION_DOT": 2.94e-06, "MEAN_MOTION_DDOT": 0}, "tle": {"line1": "1 38771U 12049A   25338.69783714  .00000294  00000+0  15431-3 0  9999", "line2": "2 38771  98.6811  28.7926 0002555 162.1610 197.9657 14.21403839685636"}}, "geometry": {"type": "Point", "coordinates": [20.590783034050858, 45.58814869435233]}}, {"type": "Feature", "properties": {"norad_id": 39216, "name": "INSAT-3D", "group": "weather", "lat": -1.299075049731715, "lon": 17.308579205744937, "alt_km": 35791.33992193277, "timestamp": "2025-12-05T11:32:55.669324+00:00", "meta": {"OBJECT_NAME": "INSAT-3D", "OBJECT_ID": "2013-038B", "EPOCH": "2025-12-04T14:20:31.070976", "MEAN_MOTION": 1.00273216, "ECCENTRICITY": 0.0001779, "INCLINATION": 1.4223, "RA_OF_ASC_NODE": 85.085, "ARG_OF_PERICENTER": 156.7246, "MEAN_ANOMALY": 176.5152, "EPHEMERIS_TYPE": 0, "CLASSIFICATION_TYPE": "U", "NORAD_CAT_ID": 39216, "ELEMENT_SET_NO": 999, "REV_AT_EPOCH": 4512, "BSTAR": 0, "MEAN_MOTION_DOT": -3.25e-06, "MEAN_MOTION_DDOT": 0}, "tle": {"line1": "1 39216U 13038B   25338.59758184 -.00000325  00000+0  00000+0 0  9993", "line2": "2 39216   1.4223  85.0850 0001779 156.7246 176.5152  1.00273216 45127"}}, "geometry": {"type": "Point", "coordinates": [17.308579205744937, -1.299075049731715]}}, {"type": "Feature", "properties": {"norad_id": 39260, "name": "FENGYUN 3C", "group": "weather", "lat": 78.6532567150383, "lon": -90.47742798372592, "alt_km": 839.744578483891, "timestamp": "2025-12-05T11:32:55.669335+00:00", "meta": {"OBJECT_NAME": "FENGYUN 3C", "OBJECT_ID": "2013-052A", "EPOCH": "2025-12-04T18:11:50.828352", "MEAN_MOTION": 14.15692637, "ECCENTRICITY": 0.0013885, "INCLINATION": 98.4755, "RA_OF_ASC_NODE": 316.8277, "ARG_OF_PERICENTER": 219.9753, "MEAN_ANOMALY": 140.04, "EPHEMERIS_TYPE": 0, "CLASSIFICATION_TYPE": "U", "NORAD_CAT_ID": 39260, "ELEMENT_SET_NO": 999, "REV_AT_EPOCH": 63105, "BSTAR": 0.00014643, "MEAN_MOTION_DOT": 2.46e-06, "MEAN_MOTION_DDOT": 0}, "tle": {"line1": "1 39260U 13052A   25338.75822718  .00000246  00000+0  14643-3 0  9994", "line2": "2 39260  98.4755 316.8277 0013885 219.9753 140.0400 14.15692637631053"}}, "geometry": {"type": "Point", "coordinates": [-90.47742798372592, 78.6532567150383]}}, {"type": "Feature", "properties": {"norad_id": 40069, "name": "METEOR-M 2", "group": "weather", "lat": -79.92751913982474, "lon": 14.571541129674353, "alt_km": 825.4580604265675, "timestamp": "2025-12-05T11:32:55.669346+00:00", "meta": {"OBJECT_NAME": "METEOR-M 2", "OBJECT_ID": "2014-037A", "EPOCH": "2025-12-04T19:03:05.585760", "MEAN_MOTION": 14.21381783, "ECCENTRICITY": 0.0004734, "INCLINATION": 98.4894, "RA_OF_ASC_NODE": 316.6833, "ARG_OF_PERICENTER": 235.9996, "MEAN_ANOMALY": 124.0732, "EPHEMERIS_TYPE": 0, "CLASSIFICATION_TYPE": "U", "NORAD_CAT_ID": 40069, "ELEMENT_SET_NO": 999, "REV_AT_EPOCH": 59170, "BSTAR": 0.00014795, "MEAN_MOTION_DOT": 2.81e-06, "MEAN_MOTION_DDOT": 0}, "tle": {"line1": "1 40069U 14037A   25338.79381465  .00000281  00000+0  14795-3 0  9997", "line2": "2 40069  98.4894 316.6833 0004734 235.9996 124.0732 14.21381783591703"}}, "geometry": {"type": "Point", "coordinates": [14.571541129674353, -79.92751913982474]}}, {"type": "Feature", "properties": {"norad_id": 40267, "name": "HIMAWARI-8", "group": "weather", "lat": -0.004129507104775609, "lon": 28.442009526958774, "alt_km": 35787.89705778206, "timestamp": "2025-12-05T11:32:55.669358+00:00", "meta": {"OBJECT_NAME": "HIMAWARI-8", "OBJECT_ID": "2014-060A", "EPOCH": "2025-12-04T14:23:45.762144", "MEAN_MOTION": 1.00270217, "ECCENTRICITY": 0.0001317, "INCLINATION": 0.0105, "RA_OF_ASC_NODE": 98.274, "ARG_OF_PERICENTER": 187.1183, "MEAN_ANOMALY": 144.897, "EPHEMERIS_TYPE": 0, "CLASSIFICATION_TYPE": "U", "NORAD_CAT_ID": 40267, "ELEMENT_SET_NO": 999, "REV_AT_EPOCH": 4080, "BSTAR": 0, "MEAN_MOTION_DOT": -2.61e-06, "MEAN_MOTION_DDOT": 0}, "tle": {"line1": "1 40267U 14060A   25338.59983521 -.00000261  00000+0  00000+0 0  9991", "line2": "2 40267   0.0105  98.2740 0001317 187.1183 144.8970  1.00270217 40803"}}, "geometry": {"type": "Point", "coordinates": [28.442009526958774, -0.004129507104775609]}}, {"type": "Feature", "properties": {"norad_id": 40367, "name": "FENGYUN 2G", "group": "weather", "lat": -5.140893101825127, "lon": -12.507505604624065, "alt_km": 35785.43214649793, "timestamp": "2025-12-05T11:32:55.669370+00:00", "meta": {"OBJECT_NAME": "FENGYUN 2G", "OBJECT_ID": "2014-090A", "EPOCH": "2025-12-04T17:37:34.696704", "MEAN_MOTION": 1.00266912, "ECCENTRICITY": 0.0003143, "INCLINATION": 5.1466, "RA_OF_ASC_NODE": 75.1906, "ARG_OF_PERICENTER": 194.4854, "MEAN_ANOMALY": 168.2191, "EPHEMERIS_TYPE": 0, "CLASSIFICATION_TYPE": "U", "NORAD_CAT_ID": 40367, "ELEMENT_SET_NO": 999, "REV_AT_EPOCH": 4005, "BSTAR": 0, "MEAN_MOTION_DOT": -2.91e-06, "MEAN_MOTION_DDOT": 0}, "tle": {"line1": "1 40367U 14090A   25338.73442936 -.00000291  00000+0  00000+0 0  9994", "line2": "2 40367   5.1466  75.1906 0003143 194.4854 168.2191  1.00266912 40052"}}, "geometry": {"type": "Point", "coordinates": [-12.507505604624065, -5.140893101825127]}}, {"type": "Feature", "properties": {"norad_id": 40732, "name": "METEOSAT-11 (MSG-4)", "group": "weather", "lat": -0.2711012472519407, "lon": -102.81758640541835, "alt_km": 35786.264574771725, "timestamp": "2025-12-05T11:32:55.669383+00:00", "meta": {"OBJECT_NAME": "METEOSAT-11 (MSG-4)", "OBJECT_ID": "2015-034A", "EPOCH": "2025-12-04T13:46:19.349184", "MEAN_MOTION": 1.00264986, "ECCENTRICITY": 0.000103, "INCLINATION": 2.715, "RA_OF_ASC_NODE": 72.024, "ARG_OF_PERICENTER": 117.8054, "MEAN_ANOMALY": 99.8358, "EPHEMERIS_TYPE": 0, "CLASSIFICATION_TYPE": "U", "NORAD_CAT_ID": 40732, "ELEMENT_SET_NO": 999, "REV_AT_EPOCH": 526, "BSTAR": 0, "MEAN_MOTION_DOT": 7.5e-07, "MEAN_MOTION_DDOT": 0}, "tle": {"line1": "1 40732U 15034A   25338.57383506  .00000075  00000+0  00000+0 0  9997", "line2": "2 40732   2.7150  72.0240 0001030 117.8054  99.8358  1.00264986  5269"}}, "geometry": {"type": "Point", "coordinates": [-102.81758640541835, -0.2711012472519407]}}, {"type": "Feature", "properties": {"norad_id": 41105, "name": "ELEKTRO-L 2", "group": "weather", "lat": 2.0642017000879838, "lon": -126.69147491864788, "alt_km": 35772.86215561214, "timestamp": "2025-12-05T11:32:55.669394+00:00", "meta": {"OBJECT_NAME": "ELEKTRO-L 2", "OBJECT_ID": "2015-074A", "EPOCH": "2025-12-04T01:40:17.137056", "MEAN_MOTION": 1.00269777, "ECCENTRICITY": 0.00040203, "INCLINATION": 6.2023, "RA_OF_ASC_NODE": 72.9293, "ARG_OF_PERICENTER": 197.7104, "MEAN_ANOMALY": 173.0548, "EPHEMERIS_TYPE": 0, "CLASSIFICATION_TYPE": "U", "NORAD_CAT_ID": 41105, "ELEMENT_SET_NO": 999, "REV_AT_EPOCH": 3655, "BSTAR": 0, "MEAN_MOTION_DOT": -1.05e-06, "MEAN_MOTION_DDOT": 0}, "tle": {"line1": "1 41105U 15074A   25338.06964279 -.00000105  00000+0  00000+0 0  9997", "line2": "2 41105   6.2023  72.9293 0004020 197.7104 173.0548  1.00269777 36559"}}, "geometry": {"type": "Point", "coordinates": [-126.69147491864788, 2.0642017000879838]}}, {"type": "Feature", "properties": {"norad_id": 41752, "name": "INSAT-3DR", "group": "weather", "lat": -0.059213537572876854, "lon": -38.09433866561924, "alt_km": 35749.47126359453, "timestamp": "2025-12-05T11:32:55.669407+00:00", "meta": {"OBJECT_NAME": "INSAT-3DR", "OBJECT_ID": "2016-054A", "EPOCH": "2025-12-04T14:04:47.577792", "MEAN_MOTION": 1.00269621, "ECCENTRICITY": 0.0014527, "INCLINATION": 0.0713, "RA_OF_ASC_NODE": 88.5764, "ARG_OF_PERICENTER": 180.632, "MEAN_ANOMALY": 89.672, "EPHEMERIS_TYPE": 0, "CLASSIFICATION_TYPE": "U", "NORAD_CAT_ID": 41752, "ELEMENT_SET_NO": 999, "REV_AT_EPOCH": 3386, "BSTAR": 0, "MEAN_MOTION_DOT": -6.2e-07, "MEAN_MOTION_DDOT": 0}, "tle": {"line1": "1 41752U 16054A   25338.58666178 -.00000062  00000+0  00000+0 0  9990", "line2": "2 41752   0.0713  88.5764 0014527 180.6320  89.6720  1.00269621 33868"}}, "geometry": {"type": "Point", "coordinates": [-38.09433866561924, -0.059213537572876854]}}]}